OBJECT_NAME,OBJECT_ID,EPOCH,MEAN_MOTION,ECCENTRICITY,INCLINATION,RA_OF_ASC_NODE,ARG_OF_PERICENTER,MEAN_ANOMALY,EPHEMERIS_TYPE,CLASSIFICATION_TYPE,NORAD_CAT_ID,ELEMENT_SET_NO,REV_AT_EPOCH,BSTAR,MEAN_MOTION_DOT,MEAN_MOTION_DDOT
TIANQI-25,2024-102A,2026-06-14T05:47:39.740352,13.99170569,.00122899,44.9775,275.0571,225.3751,134.6080,0,U,59909,999,10449,.14847073E-3,.88E-6,0
TIANQI-26,2024-102B,2026-06-14T07:03:35.570016,13.99184004,.00111554,44.9738,274.4153,228.9048,131.0821,0,U,59910,999,10450,.15100186E-3,.92E-6,0
TIANQI-27,2024-102C,2026-06-14T06:12:31.533984,13.99152922,.00080057,44.9784,274.4760,236.1951,123.8120,0,U,59911,999,10449,.15002909E-3,.9E-6,0
TIANQI-28,2024-102D,2026-06-14T06:39:53.005248,13.99168504,.00127091,44.9791,274.6200,234.5639,125.4008,0,U,59912,999,10449,.1507409E-3,.92E-6,0
PAKSAT-MM1,2024-104A,2026-06-14T04:44:02.113152,1.00274316,.00017631,0.0389,93.4767,336.8469,301.4058,0,U,59915,999,749,0,.162E-5,0
2024-105A,2024-105A,2026-06-14T07:20:59.522208,15.17068875,.00119533,97.5829,180.5424,233.5379,126.4753,0,U,59917,999,11259,.1387678E-3,.2682E-4,0
2024-105B,2024-105B,2026-06-14T07:40:19.659936,15.19108198,.00102494,97.5813,180.7621,251.1200,108.8923,0,U,59918,999,11261,.36570359E-3,.7618E-4,0
2024-105C,2024-105C,2026-05-25T06:13:37.407936,15.16509634,.0014365,97.5805,162.1295,266.5691,93.3899,0,U,59919,999,10968,.17586E-3,.3365E-4,0
2024-105D,2024-105D,2026-06-14T07:57:21.943872,15.22576693,.00104875,97.5814,184.2426,222.0547,137.9885,0,U,59920,999,11282,.24901109E-3,.5718E-4,0
2024-105E,2024-105E,2026-06-14T07:32:27.428640,15.10817620,.0030929,97.5791,181.9392,193.5268,166.5137,0,U,59921,999,11270,.17223866E-3,.2827E-4,0
STARLINK-31872,2024-106A,2026-06-14T05:32:53.081952,15.27574931,.00014439,43.0013,147.6442,270.6050,89.4636,0,U,59922,999,11532,.72105383E-4,.1722E-4,0
STARLINK-31972,2024-106B,2026-06-13T16:33:41.754240,15.27580847,.00015592,43.0039,150.4648,271.2199,88.8474,0,U,59923,999,11525,.73013689E-4,.1747E-4,0
STARLINK-31958,2024-106C,2026-06-14T05:16:55.964352,15.27576874,.00010896,43.0034,132.8590,268.7298,91.3429,0,U,59924,999,11545,-.14119805E-4,-.651E-5,0
STARLINK-31959,2024-106D,2026-06-13T06:25:01.574112,15.27581389,.0000502,43.0031,148.9118,255.4786,104.6010,0,U,59925,999,11518,.78042E-5,-.47E-6,0
STARLINK-31957,2024-106E,2026-06-14T05:49:18.524064,15.27570999,.00013918,42.9965,146.8698,271.2342,88.8350,0,U,59926,999,11534,-.37640402E-4,-.1297E-4,0
STARLINK-31968,2024-106F,2026-06-14T06:00:24.710400,15.27568616,.00012576,42.9972,146.9285,271.2317,88.8390,0,U,59927,999,11534,-.46561341E-4,-.1543E-4,0
STARLINK-31970,2024-106G,2026-06-13T16:28:08.736672,15.27577948,.00017334,43.0027,150.4361,272.8950,87.1703,0,U,59928,999,11525,.15671532E-4,.169E-5,0
STARLINK-31932,2024-106H,2026-06-14T05:35:23.071488,15.27667989,.00032019,42.9941,144.0880,112.4035,247.7156,0,U,59929,999,11532,.32804379E-2,.91386E-3,0
STARLINK-31956,2024-106J,2026-06-13T16:18:57.273120,15.27549867,.00030215,43.0147,150.3921,262.6435,97.4073,0,U,59930,999,11520,.29520828E-3,.7862E-4,0
STARLINK-31960,2024-106K,2026-06-14T06:04:06.960576,15.27568871,.00005373,43.0017,146.9446,257.1940,102.8852,0,U,59931,999,11529,.16621942E-3,.4313E-4,0
STARLINK-31432,2024-106L,2026-06-14T06:42:57.998016,15.27560734,.00019219,42.9984,147.1486,267.0833,92.9799,0,U,59932,999,11528,.57867296E-3,.15687E-3,0
STARLINK-31853,2024-106M,2026-06-12T16:52:05.350080,15.27580338,.00026416,43.0143,155.9563,271.6535,88.4014,0,U,59933,999,11505,.22526595E-4,.357E-5,0
STARLINK-31971,2024-106N,2026-06-14T05:40:56.090784,15.27561390,.00009394,42.9979,144.0738,278.4852,81.5893,0,U,59934,999,11520,-.68827667E-4,-.2154E-4,0
STARLINK-31962,2024-106Q,2026-06-13T05:56:47.092128,15.27594432,.0001433,43.0016,153.1610,274.8990,85.1698,0,U,59936,999,11513,.93615E-4,.2316E-4,0
STARLINK-31879,2024-106R,2026-06-14T05:43:58.037088,15.27571883,.00011566,43.0058,147.6930,279.3800,80.6921,0,U,59937,999,11533,.7807472E-5,-.47E-6,0
STARLINK-31876,2024-106S,2026-06-13T16:13:20.351136,15.27601959,.00007661,43.0014,150.3592,4.7654,355.3205,0,U,59938,999,11521,.87665904E-4,.2153E-4,0
STARLINK-31955,2024-106T,2026-06-14T05:51:09.495360,15.27583406,.00010644,43.0005,146.8709,270.9084,89.1645,0,U,59939,999,11533,-.25165442E-4,-.954E-5,0
STARLINK-31946,2024-106U,2026-06-14T05:38:26.130624,15.27568369,.00015036,42.9986,147.6678,273.8273,86.2407,0,U,59940,999,10591,-.18653276E-4,-.775E-5,0
STARLINK-31948,2024-106V,2026-06-13T15:22:25.078656,15.27577313,.00012392,42.9988,147.3861,272.5823,87.4887,0,U,59941,999,11523,.11855529E-4,.64E-6,0
STARLINK-31900,2024-106W,2026-06-14T05:54:51.558912,15.27569963,.00012111,42.9985,146.9015,269.5361,90.5352,0,U,59942,999,11529,-.35674081E-4,-.1243E-4,0
