TIANQI-25               
1 59909U 24102A   26165.24143218  .00000088  00000+0  14847-3 0  9998
2 59909  44.9775 275.0571 0012289 225.3751 134.6080 13.99170569104494
TIANQI-26               
1 59910U 24102B   26165.29416169  .00000092  00000+0  15100-3 0  9991
2 59910  44.9738 274.4153 0011155 228.9048 131.0821 13.99184004104508
TIANQI-27               
1 59911U 24102C   26165.25869831  .00000090  00000+0  15003-3 0  9996
2 59911  44.9784 274.4760 0008005 236.1951 123.8120 13.99152922104491
TIANQI-28               
1 59912U 24102D   26165.27769682  .00000092  00000+0  15074-3 0  9992
2 59912  44.9791 274.6200 0012709 234.5639 125.4008 13.99168504104498
PAKSAT-MM1              
1 59915U 24104A   26165.19724668  .00000162  00000+0  00000+0 0  9990
2 59915   0.0389  93.4767 0001763 336.8469 301.4058  1.00274316  7498
2024-105A               
1 59917U 24105A   26165.30624447  .00002682  00000+0  13877-3 0  9999
2 59917  97.5829 180.5424 0011953 233.5379 126.4753 15.17068875112592
2024-105B               
1 59918U 24105B   26165.31967199  .00007618  00000+0  36570-3 0  9994
2 59918  97.5813 180.7621 0010249 251.1200 108.8923 15.19108198112614
2024-105C               
1 59919U 24105C   26145.25946074  .00003365  00000+0  17586-3 0  9996
2 59919  97.5805 162.1295 0014365 266.5691  93.3899 15.16509634109684
2024-105D               
1 59920U 24105D   26165.33150398  .00005718  00000+0  24901-3 0  9998
2 59920  97.5814 184.2426 0010487 222.0547 137.9885 15.22576693112821
2024-105E               
1 59921U 24105E   26165.31420635  .00002827  00000+0  17224-3 0  9999
2 59921  97.5791 181.9392 0030929 193.5268 166.5137 15.10817620112707
STARLINK-31872          
1 59922U 24106A   26165.23116993  .00001722  00000+0  72105-4 0  9994
2 59922  43.0013 147.6442 0001443 270.6050  89.4636 15.27574931115322
STARLINK-31972          
1 59923U 24106B   26164.69006660  .00001747  00000+0  73014-4 0  9990
2 59923  43.0039 150.4648 0001559 271.2199  88.8474 15.27580847115258
STARLINK-31958          
1 59924U 24106C   26165.22009218 -.00000651  00000+0 -14120-4 0  9991
2 59924  43.0034 132.8590 0001089 268.7298  91.3429 15.27576874115459
STARLINK-31959          
1 59925U 24106D   26164.26737933 -.00000047  00000+0  78042-5 0  9999
2 59925  43.0031 148.9118 0000502 255.4786 104.6010 15.27581389115186
STARLINK-31957          
1 59926U 24106E   26165.24257551 -.00001297  00000+0 -37640-4 0  9999
2 59926  42.9965 146.8698 0001391 271.2342  88.8350 15.27570999115345
STARLINK-31968          
1 59927U 24106F   26165.25028600 -.00001543  00000+0 -46561-4 0  9998
2 59927  42.9972 146.9285 0001257 271.2317  88.8390 15.27568616115347
STARLINK-31970          
1 59928U 24106G   26164.68621223  .00000169  00000+0  15672-4 0  9995
2 59928  43.0027 150.4361 0001733 272.8950  87.1703 15.27577948115253
STARLINK-31932          
1 59929U 24106H   26165.23290592  .00091386  00000+0  32804-2 0  9994
2 59929  42.9941 144.0880 0003201 112.4035 247.7156 15.27667989115326
STARLINK-31956          
1 59930U 24106J   26164.67982955  .00007862  00000+0  29521-3 0  9993
2 59930  43.0147 150.3921 0003021 262.6435  97.4073 15.27549867115205
STARLINK-31960          
1 59931U 24106K   26165.25285834  .00004313  00000+0  16622-3 0  9997
2 59931  43.0017 146.9446 0000537 257.1940 102.8852 15.27568871115295
STARLINK-31432          
1 59932U 24106L   26165.27983794  .00015687  00000+0  57867-3 0  9992
2 59932  42.9984 147.1486 0001921 267.0833  92.9799 15.27560734115281
STARLINK-31853          
1 59933U 24106M   26163.70283970  .00000357  00000+0  22527-4 0  9992
2 59933  43.0143 155.9563 0002641 271.6535  88.4014 15.27580338115051
STARLINK-31971          
1 59934U 24106N   26165.23676031 -.00002154  00000+0 -68828-4 0  9990
2 59934  42.9979 144.0738 0000939 278.4852  81.5893 15.27561390115208
STARLINK-31962          
1 59936U 24106Q   26164.24776727  .00002316  00000+0  93615-4 0  9995
2 59936  43.0016 153.1610 0001433 274.8990  85.1698 15.27594432115135
STARLINK-31879          
1 59937U 24106R   26165.23886617 -.00000047  00000+0  78075-5 0  9990
2 59937  43.0058 147.6930 0001156 279.3800  80.6921 15.27571883115333
STARLINK-31876          
1 59938U 24106S   26164.67592999  .00002153  00000+0  87666-4 0  9999
2 59938  43.0014 150.3592 0000766   4.7654 355.3205 15.27601959115216
STARLINK-31955          
1 59939U 24106T   26165.24385990 -.00000954  00000+0 -25165-4 0  9990
2 59939  43.0005 146.8709 0001064 270.9084  89.1645 15.27583406115332
STARLINK-31946          
1 59940U 24106U   26165.23502466 -.00000775  00000+0 -18653-4 0  9995
2 59940  42.9986 147.6678 0001503 273.8273  86.2407 15.27568369105912
STARLINK-31948          
1 59941U 24106V   26164.64056804  .00000064  00000+0  11856-4 0  9997
2 59941  42.9988 147.3861 0001239 272.5823  87.4887 15.27577313115239
STARLINK-31900          
1 59942U 24106W   26165.24643008 -.00001243  00000+0 -35674-4 0  9999
2 59942  42.9985 146.9015 0001211 269.5361  90.5352 15.27569963115296
